HIMAWARI-8              
1 40267U 14060A   24287.51160569 -.00000277  00000+0  00000+0 0  9991
2 40267   0.0301 145.5904 0000792  91.6934 110.1608  1.00271411 36624
